IRIDIUM 152             
1 43479U 18047D   26064.56535026  .00000108  00000+0  31472-4 0  9996
2 43479  86.3981 131.6666 0002243  92.5008 267.6445 14.34218149407639
IRIDIUM 147             
1 43480U 18047E   26064.57168758  .00000320  00000+0  10736-3 0  9998
2 43480  86.3984 131.6674 0002238  99.3373 260.8076 14.34220791407638
IRIDIUM 110             
1 43481U 18047F   26064.57803591  .00000022  00000+0  94198-6 0  9996
2 43481  86.3988 131.7536 0002438  88.7898 271.3577 14.34217760407621
IRIDIUM 162             
1 43482U 18047G   26064.58241681  .00000445  00000+0  12621-3 0  9991
2 43482  86.4507 131.6915 0002099  92.2730 267.8711 14.43283672410188
IRIDIUM 160             
1 43569U 18061A   26064.59363949  .00000012  00000+0 -29099-5 0  9996
2 43569  86.3920 100.1304 0002376  92.1277 268.0191 14.34217863398525
IRIDIUM 166             
1 43570U 18061B   26064.54924113  .00000004  00000+0 -54593-5 0  9997
2 43570  86.3920 100.1010 0002203  96.3455 263.7992 14.34217712398540
IRIDIUM 158             
1 43571U 18061C   26064.58729578  .00000125  00000+0  37713-4 0  9997
2 43571  86.3921 100.0951 0002124  89.5421 270.6018 14.34217981398515
IRIDIUM 165             
1 43572U 18061D   26064.61266662  .00000091  00000+0  25473-4 0  9994
2 43572  86.3920 100.1286 0002188  96.5515 263.5930 14.34218232398546
IRIDIUM 155             
1 43573U 18061E   26064.57461105  .00000021  00000+0  32494-6 0  9995
2 43573  86.3921 100.0184 0001952  93.9504 266.1915 14.34217814398504
IRIDIUM 154             
1 43574U 18061F   26064.55559025  .00000332  00000+0  11150-3 0  9991
2 43574  86.3922 100.1554 0002228  98.6734 261.4715 14.34222866398556
IRIDIUM 163             
1 43575U 18061G   26064.60632444  .00000062  00000+0  14968-4 0  9996
2 43575  86.3919 100.0528 0002190  91.0768 269.0678 14.34218093398532
IRIDIUM 156             
1 43576U 18061H   26064.58095356  .00000063  00000+0  15478-4 0  9997
2 43576  86.3918 100.0704 0002015  93.5804 266.5622 14.34218114398526
IRIDIUM 164             
1 43577U 18061J   26064.56192686  .00000319  00000+0  10680-3 0  9993
2 43577  86.3922 100.1172 0002327  97.5915 262.5545 14.34218178398569
IRIDIUM 159             
1 43578U 18061K   26064.59998237  .00000009  00000+0 -37448-5 0  9993
2 43578  86.3919 100.0397 0002276  91.5573 268.5883 14.34217670398535
IRIDIUM 180             
1 43922U 19002A   26064.59947857 -.00000003  00000+0 -80254-5 0  9992
2 43922  86.3962  36.8752 0002198  85.2469 274.8978 14.34217435374149
IRIDIUM 176             
1 43923U 19002B   26064.64417310  .00001443  00000+0  22491-3 0  9999
2 43923  86.6087  36.8138 0002440  89.3293 270.8204 14.72249566384016
IRIDIUM 168             
1 43924U 19002C   26064.45359292  .00000380  00000+0  12863-3 0  9994
2 43924  86.3964  37.0102 0002202  86.1982 273.9465 14.34213458374109
