[{"OBJECT_NAME":"IRIDIUM 152","OBJECT_ID":"2018-047D","EPOCH":"2026-03-05T13:34:06.262464","MEAN_MOTION":14.34218149,"ECCENTRICITY":0.00022434,"INCLINATION":86.3981,"RA_OF_ASC_NODE":131.6666,"ARG_OF_PERICENTER":92.5008,"MEAN_ANOMALY":267.6445,"EPHEMERIS_TYPE":0,"CLASSIFICATION_TYPE":"U","NORAD_CAT_ID":43479,"ELEMENT_SET_NO":999,"REV_AT_EPOCH":40763,"BSTAR":3.1471645e-5,"MEAN_MOTION_DOT":1.08e-6,"MEAN_MOTION_DDOT":0},{"OBJECT_NAME":"IRIDIUM 147","OBJECT_ID":"2018-047E","EPOCH":"2026-03-05T13:43:13.806912","MEAN_MOTION":14.34220791,"ECCENTRICITY":0.00022388,"INCLINATION":86.3984,"RA_OF_ASC_NODE":131.6674,"ARG_OF_PERICENTER":99.3373,"MEAN_ANOMALY":260.8076,"EPHEMERIS_TYPE":0,"CLASSIFICATION_TYPE":"U","NORAD_CAT_ID":43480,"ELEMENT_SET_NO":999,"REV_AT_EPOCH":40763,"BSTAR":0.00010735609,"MEAN_MOTION_DOT":3.2e-6,"MEAN_MOTION_DDOT":0},{"OBJECT_NAME":"IRIDIUM 110","OBJECT_ID":"2018-047F","EPOCH":"2026-03-05T13:52:22.302624","MEAN_MOTION":14.3421776,"ECCENTRICITY":0.00024382,"INCLINATION":86.3988,"RA_OF_ASC_NODE":131.7536,"ARG_OF_PERICENTER":88.7898,"MEAN_ANOMALY":271.3577,"EPHEMERIS_TYPE":0,"CLASSIFICATION_TYPE":"U","NORAD_CAT_ID":43481,"ELEMENT_SET_NO":999,"REV_AT_EPOCH":40762,"BSTAR":9.41979e-7,"MEAN_MOTION_DOT":2.2e-7,"MEAN_MOTION_DDOT":0},{"OBJECT_NAME":"IRIDIUM 162","OBJECT_ID":"2018-047G","EPOCH":"2026-03-05T13:58:40.812384","MEAN_MOTION":14.43283672,"ECCENTRICITY":0.00020991,"INCLINATION":86.4507,"RA_OF_ASC_NODE":131.6915,"ARG_OF_PERICENTER":92.273,"MEAN_ANOMALY":267.8711,"EPHEMERIS_TYPE":0,"CLASSIFICATION_TYPE":"U","NORAD_CAT_ID":43482,"ELEMENT_SET_NO":999,"REV_AT_EPOCH":41018,"BSTAR":0.00012621296,"MEAN_MOTION_DOT":4.45e-6,"MEAN_MOTION_DDOT":0},{"OBJECT_NAME":"IRIDIUM 160","OBJECT_ID":"2018-061A","EPOCH":"2026-03-05T14:14:50.451936","MEAN_MOTION":14.34217863,"ECCENTRICITY":0.00023766,"INCLINATION":86.392,"RA_OF_ASC_NODE":100.1304,"ARG_OF_PERICENTER":92.1277,"MEAN_ANOMALY":268.0191,"EPHEMERIS_TYPE":0,"CLASSIFICATION_TYPE":"U","NORAD_CAT_ID":43569,"ELEMENT_SET_NO":999,"REV_AT_EPOCH":39852,"BSTAR":-2.909929e-6,"MEAN_MOTION_DOT":1.2e-7,"MEAN_MOTION_DDOT":0},{"OBJECT_NAME":"IRIDIUM 166","OBJECT_ID":"2018-061B","EPOCH":"2026-03-05T13:10:54.433632","MEAN_MOTION":14.34217712,"ECCENTRICITY":0.00022036,"INCLINATION":86.392,"RA_OF_ASC_NODE":100.101,"ARG_OF_PERICENTER":96.3455,"MEAN_ANOMALY":263.7992,"EPHEMERIS_TYPE":0,"CLASSIFICATION_TYPE":"U","NORAD_CAT_ID":43570,"ELEMENT_SET_NO":999,"REV_AT_EPOCH":39854,"BSTAR":-5.459285e-6,"MEAN_MOTION_DOT":4.0e-8,"MEAN_MOTION_DDOT":0},{"OBJECT_NAME":"IRIDIUM 158","OBJECT_ID":"2018-061C","EPOCH":"2026-03-05T14:05:42.355392","MEAN_MOTION":14.34217981,"ECCENTRICITY":0.00021245,"INCLINATION":86.3921,"RA_OF_ASC_NODE":100.0951,"ARG_OF_PERICENTER":89.5421,"MEAN_ANOMALY":270.6018,"EPHEMERIS_TYPE":0,"CLASSIFICATION_TYPE":"U","NORAD_CAT_ID":43571,"ELEMENT_SET_NO":999,"REV_AT_EPOCH":39851,"BSTAR":3.7713192e-5,"MEAN_MOTION_DOT":1.25e-6,"MEAN_MOTION_DDOT":0},{"OBJECT_NAME":"IRIDIUM 165","OBJECT_ID":"2018-061D","EPOCH":"2026-03-05T14:42:14.395968","MEAN_MOTION":14.34218232,"ECCENTRICITY":0.00021887,"INCLINATION":86.392,"RA_OF_ASC_NODE":100.1286,"ARG_OF_PERICENTER":96.5515,"MEAN_ANOMALY":263.593,"EPHEMERIS_TYPE":0,"CLASSIFICATION_TYPE":"U","NORAD_CAT_ID":43572,"ELEMENT_SET_NO":999,"REV_AT_EPOCH":39854,"BSTAR":2.5473269e-5,"MEAN_MOTION_DOT":9.1e-7,"MEAN_MOTION_DDOT":0},{"OBJECT_NAME":"IRIDIUM 155","OBJECT_ID":"2018-061E","EPOCH":"2026-03-05T13:47:26.394720","MEAN_MOTION":14.34217814,"ECCENTRICITY":0.0001952,"INCLINATION":86.3921,"RA_OF_ASC_NODE":100.0184,"ARG_OF_PERICENTER":93.9504,"MEAN_ANOMALY":266.1915,"EPHEMERIS_TYPE":0,"CLASSIFICATION_TYPE":"U","NORAD_CAT_ID":43573,"ELEMENT_SET_NO":999,"REV_AT_EPOCH":39850,"BSTAR":3.24939e-7,"MEAN_MOTION_DOT":2.1e-7,"MEAN_MOTION_DDOT":0},{"OBJECT_NAME":"IRIDIUM 154","OBJECT_ID":"2018-061F","EPOCH":"2026-03-05T13:20:02.997600","MEAN_MOTION":14.34222866,"ECCENTRICITY":0.00022286,"INCLINATION":86.3922,"RA_OF_ASC_NODE":100.1554,"ARG_OF_PERICENTER":98.6734,"MEAN_ANOMALY":261.4715,"EPHEMERIS_TYPE":0,"CLASSIFICATION_TYPE":"U","NORAD_CAT_ID":43574,"ELEMENT_SET_NO":999,"REV_AT_EPOCH":39855,"BSTAR":0.00011149973,"MEAN_MOTION_DOT":3.32e-6,"MEAN_MOTION_DDOT":0},{"OBJECT_NAME":"IRIDIUM 163","OBJECT_ID":"2018-061G","EPOCH":"2026-03-05T14:33:06.431616","MEAN_MOTION":14.34218093,"ECCENTRICITY":0.00021903,"INCLINATION":86.3919,"RA_OF_ASC_NODE":100.0528,"ARG_OF_PERICENTER":91.0768,"MEAN_ANOMALY":269.0678,"EPHEMERIS_TYPE":0,"CLASSIFICATION_TYPE":"U","NORAD_CAT_ID":43575,"ELEMENT_SET_NO":999,"REV_AT_EPOCH":39853,"BSTAR":1.4968373e-5,"MEAN_MOTION_DOT":6.2e-7,"MEAN_MOTION_DDOT":0},{"OBJECT_NAME":"IRIDIUM 156","OBJECT_ID":"2018-061H","EPOCH":"2026-03-05T13:56:34.387584","MEAN_MOTION":14.34218114,"ECCENTRICITY":0.00020155,"INCLINATION":86.3918,"RA_OF_ASC_NODE":100.0704,"ARG_OF_PERICENTER":93.5804,"MEAN_ANOMALY":266.5622,"EPHEMERIS_TYPE":0,"CLASSIFICATION_TYPE":"U","NORAD_CAT_ID":43576,"ELEMENT_SET_NO":999,"REV_AT_EPOCH":39852,"BSTAR":1.5478071e-5,"MEAN_MOTION_DOT":6.3e-7,"MEAN_MOTION_DDOT":0},{"OBJECT_NAME":"IRIDIUM 164","OBJECT_ID":"2018-061J","EPOCH":"2026-03-05T13:29:10.480704","MEAN_MOTION":14.34218178,"ECCENTRICITY":0.00023273,"INCLINATION":86.3922,"RA_OF_ASC_NODE":100.1172,"ARG_OF_PERICENTER":97.5915,"MEAN_ANOMALY":262.5545,"EPHEMERIS_TYPE":0,"CLASSIFICATION_TYPE":"U","NORAD_CAT_ID":43577,"ELEMENT_SET_NO":999,"REV_AT_EPOCH":39856,"BSTAR":0.000106803,"MEAN_MOTION_DOT":3.19e-6,"MEAN_MOTION_DDOT":0},{"OBJECT_NAME":"IRIDIUM 159","OBJECT_ID":"2018-061K","EPOCH":"2026-03-05T14:23:58.476768","MEAN_MOTION":14.3421767,"ECCENTRICITY":0.00022762,"INCLINATION":86.3919,"RA_OF_ASC_NODE":100.0397,"ARG_OF_PERICENTER":91.5573,"MEAN_ANOMALY":268.5883,"EPHEMERIS_TYPE":0,"CLASSIFICATION_TYPE":"U","NORAD_CAT_ID":43578,"ELEMENT_SET_NO":999,"REV_AT_EPOCH":39853,"BSTAR":-3.744818e-6,"MEAN_MOTION_DOT":9.0e-8,"MEAN_MOTION_DDOT":0},{"OBJECT_NAME":"IRIDIUM 180","OBJECT_ID":"2019-002A","EPOCH":"2026-03-05T14:23:14.948448","MEAN_MOTION":14.34217435,"ECCENTRICITY":0.00021985,"INCLINATION":86.3962,"RA_OF_ASC_NODE":36.8752,"ARG_OF_PERICENTER":85.2469,"MEAN_ANOMALY":274.8978,"EPHEMERIS_TYPE":0,"CLASSIFICATION_TYPE":"U","NORAD_CAT_ID":43922,"ELEMENT_SET_NO":999,"REV_AT_EPOCH":37414,"BSTAR":-8.025432e-6,"MEAN_MOTION_DOT":-3.0e-8,"MEAN_MOTION_DDOT":0},{"OBJECT_NAME":"IRIDIUM 176","OBJECT_ID":"2019-002B","EPOCH":"2026-03-05T15:27:36.555840","MEAN_MOTION":14.72249566,"ECCENTRICITY":0.00024407,"INCLINATION":86.6087,"RA_OF_ASC_NODE":36.8138,"ARG_OF_PERICENTER":89.3293,"MEAN_ANOMALY":270.8204,"EPHEMERIS_TYPE":0,"CLASSIFICATION_TYPE":"U","NORAD_CAT_ID":43923,"ELEMENT_SET_NO":999,"REV_AT_EPOCH":38401,"BSTAR":0.00022491434,"MEAN_MOTION_DOT":1.443e-5,"MEAN_MOTION_DDOT":0},{"OBJECT_NAME":"IRIDIUM 168","OBJECT_ID":"2019-002C","EPOCH":"2026-03-05T10:53:10.428288","MEAN_MOTION":14.34213458,"ECCENTRICITY":0.00022025,"INCLINATION":86.3964,"RA_OF_ASC_NODE":37.0102,"ARG_OF_PERICENTER":86.1982,"MEAN_ANOMALY":273.9465,"EPHEMERIS_TYPE":0,"CLASSIFICATION_TYPE":"U","NORAD_CAT_ID":43924,"ELEMENT_SET_NO":999,"REV_AT_EPOCH":37410,"BSTAR":0.00012863074,"MEAN_MOTION_DOT":3.8e-6,"MEAN_MOTION_DDOT":0}]
